              TDR Cartesian                         TDR Cartesian  
    -----------------------------------       --------------------------------
     X    =       -4580137.97                 X    =        -1396026.05
     Y    =      -14517851.65  feet           Y    =        -4425041.18  meter
     Z    =       16205204.87                 Z    =         4939346.44
     XDOT =      18369.020749                 XDOT =        5598.877524
     YDOT =     -13919.780230  feet/sec       YDOT =       -4242.749014  meter/sec
     ZDOT =      -7255.661792                 ZDOT =       -2211.525714
  
  
    The mean element set is posted at the UTC for which position is
    just north of the next ascending node relative to the above
    vector time
 
 
    TWO LINE MEAN ELEMENT SET
  
    ISS
    1 25544U 98067A   16082.54439090  .00016717  00000-0  10270-3 0  9042
    2 25544  51.6414 130.1560 0002087 336.7240  23.3818 15.54283162 31502
  
  
    Satellite: ISS
    Catalog Number: 25544
    Epoch time:      16082.54439090   =   yrday.fracday
    Element set:     904
    Inclination:       51.6414  deg
    RA of node:       130.1560  deg
    Eccentricity:     .0002087     
    Arg of perigee:   336.7240  deg
    Mean anomaly:      23.3818  deg
    Mean motion:   15.54283162  rev/day
    Decay rate:    1.67170E-04  rev/day^2
    Epoch rev:            3150
    Checksum:              278
 
 
    Coasting Arc #6 (Orbit 3164)
    ---------------------------------------
 
    Vector Time (GMT): 2016/083/12:00:00.000
    Vector Time (MET): N/A
    Weight (LBS)     : 890369.9
 
              M50 Cartesian                         M50 Keplerian  
    -----------------------------------       --------------------------------
     X    =         110176.82                 A    =         6781937.38  meter
     Y    =        5448506.55  meter          E    =           .0006320
     Z    =       -4042486.16                 I    =           51.93924
     XDOT =      -5821.492410                 Wp   =           92.15277
     YDOT =       3041.870448  meter/sec      RA   =          124.34975  deg
     ZDOT =       3946.284595                 TA   =          218.67539
                                              MA   =          218.72066
                                              Ha   =            220.737  n.mi
                                              Hp   =            214.561
 
              M50 Cartesian                         J2K Cartesian  
    -----------------------------------       --------------------------------
     X    =         361472.52                 X    =           68878.71
     Y    =       17875677.66  feet           Y    =         5449507.05  meter
     Z    =      -13262749.88                 Z    =        -4042052.15
     XDOT =     -19099.384547                 XDOT =       -5874.244025
     YDOT =       9979.889921  feet/sec       YDOT =        2976.476338  meter/sec
     ZDOT =      12947.127935                 ZDOT =        3917.876662
 
              TDR Cartesian                         TDR Cartesian  
    -----------------------------------       --------------------------------
     X    =         620877.71                 X    =          189243.53
     Y    =       17869294.85  feet           Y    =         5446561.07  meter
     Z    =      -13261744.28                 Z    =        -4042179.66
     XDOT =     -17780.994426                 XDOT =       -5419.647101
     YDOT =      10122.205499  feet/sec       YDOT =        3085.248236  meter/sec
     ZDOT =      12823.198426                 ZDOT =        3908.510880
  
  
    The mean element set is posted at the UTC for which position is
    just north of the next ascending node relative to the above
    vector time
 
 
    TWO LINE MEAN ELEMENT SET
  
    ISS
    1 25544U 98067A   16083.50883798  .00016717  00000-0  10270-3 0  9058
    2 25544  51.6415 125.3465 0002066 347.3510  12.7591 15.54289208 31651
  
  
    Satellite: ISS
    Catalog Number: 25544
    Epoch time:      16083.50883798   =   yrday.fracday
    Element set:     905
    Inclination:       51.6415  deg
    RA of node:       125.3465  deg
    Eccentricity:     .0002066     
    Arg of perigee:   347.3510  deg
    Mean anomaly:      12.7591  deg
    Mean motion:   15.54289208  rev/day
    Decay rate:    1.67170E-04  rev/day^2
    Epoch rev:            3165
    Checksum:              313
 
 
    Coasting Arc #7 (Orbit 3180)
    ---------------------------------------
 
    Vector Time (GMT): 2016/084/12:00:00.000
    Vector Time (MET): N/A
    Weight (LBS)     : 890369.9
 
              M50 Cartesian                         M50 Keplerian  
    -----------------------------------       --------------------------------
     X    =        1070501.08                 A    =         6785771.71  meter
     Y    =       -6144002.47  meter          E    =           .0012926
     Z    =        2662065.88                 I    =           51.96888
     XDOT =       5446.465049                 Wp   =           93.36123
     YDOT =      -1328.030195  meter/sec      RA   =          119.38718  deg
     ZDOT =      -5234.164344                 TA   =           56.74440
                                              MA   =           56.62060
                                              Ha   =            220.744  n.mi
                                              Hp   =            214.466
 
              M50 Cartesian                         J2K Cartesian  
    -----------------------------------       --------------------------------
     X    =        3512142.65                 X    =         1126194.08
     Y    =      -20157488.40  feet           Y    =        -6131719.59  meter
     Z    =        8733811.93                 Z    =         2667402.35
     XDOT =      17868.979820                 XDOT =        5486.335999
     YDOT =      -4357.054445  feet/sec       YDOT =       -1266.902092  meter/sec
     ZDOT =     -17172.455198                 ZDOT =       -5207.609674
 
              TDR Cartesian                         TDR Cartesian  
    -----------------------------------       --------------------------------
     X    =        2911578.19                 X    =          887449.03
     Y    =      -20242505.58  feet           Y    =        -6169915.70  meter
     Z    =        8758004.11                 Z    =         2669439.65
     XDOT =      16378.927455                 XDOT =        4992.297088
     YDOT =      -5053.727323  feet/sec       YDOT =       -1540.376088  meter/sec
     ZDOT =     -17056.848033                 ZDOT =       -5198.927281
  
  
    The mean element set is posted at the UTC for which position is
    just north of the next ascending node relative to the above
    vector time
 
 
    TWO LINE MEAN ELEMENT SET
  
    ISS
    1 25544U 98067A   16084.53756698  .00016717  00000-0  10270-3 0  9061
    2 25544  51.6408 120.2163 0002164 350.9916   9.1197 15.54313483 31814
  
  
    Satellite: ISS
    Catalog Number: 25544
    Epoch time:      16084.53756698   =   yrday.fracday
    Element set:     906
    Inclination:       51.6408  deg
    RA of node:       120.2163  deg
    Eccentricity:     .0002164     
    Arg of perigee:   350.9916  deg
    Mean anomaly:       9.1197  deg
    Mean motion:   15.54313483  rev/day
    Decay rate:    1.67170E-04  rev/day^2
    Epoch rev:            3181
    Checksum:              309
 
 
    Coasting Arc #8 (Orbit 3195)
    ---------------------------------------
 
    Vector Time (GMT): 2016/085/12:00:00.000
    Vector Time (MET): N/A
    Weight (LBS)     : 890369.9
 
              M50 Cartesian                         M50 Keplerian  
    -----------------------------------       --------------------------------
     X    =       -2034401.20                 A    =         6788313.72  meter
     Y    =        6390586.58  meter          E    =           .0011339
     Z    =       -1012634.55                 I    =           51.99277
     XDOT =      -4820.923827                 Wp   =           31.31827
     YDOT =       -600.583410  meter/sec      RA   =          114.43509  deg
     ZDOT =       5934.255104                 TA   =          317.75921
                                              MA   =          317.84650
                                              Ha   =            220.792  n.mi
                                              Hp   =            214.392
 
              M50 Cartesian                         J2K Cartesian  
    -----------------------------------       --------------------------------
     X    =       -6674544.61                 X    =        -2100792.16
     Y    =       20966491.40  feet           Y    =         6367465.19  meter
     Z    =       -3322291.82                 Z    =        -1022679.41
     XDOT =     -15816.679221                 XDOT =       -4842.675865
     YDOT =      -1970.418011  feet/sec       YDOT =        -654.614935  meter/sec
     ZDOT =      19469.340891                 ZDOT =        5910.783397
 
              TDR Cartesian                         TDR Cartesian  
    -----------------------------------       --------------------------------
     X    =       -5721230.18                 X    =        -1743830.96
     Y    =       21239392.10  feet           Y    =         6473766.71  meter
     Z    =       -3366998.42                 Z    =        -1026261.12
     XDOT =     -14464.057542                 XDOT =       -4408.644739
     YDOT =       -845.999186  feet/sec       YDOT =        -257.860552  meter/sec
     ZDOT =      19367.442220                 ZDOT =        5903.196389
  
  
    The mean element set is posted at the UTC for which position is
    just north of the next ascending node relative to the above
    vector time
 
 
    TWO LINE MEAN ELEMENT SET
  
    ISS
    1 25544U 98067A   16085.50198961  .00016717  00000-0  10270-3 0  9073
    2 25544  51.6412 115.4069 0002147 355.5934   4.5200 15.54323449 31965
  
